{
  "norad_id": 50204,
  "name": "STARLINK-3254",
  "history": [
    {
      "epoch": "2026-03-28T20:58:11.103168",
      "apogee_km": 540.6566905948839,
      "perigee_km": 538.7778013816733,
      "latitude_deg": 10.344151640352568,
      "longitude_deg": 4.279003520030528,
      "semi_major_axis_km": 6917.854245988278,
      "eccentricity": 0.0001358,
      "inclination_deg": 53.2172,
      "raan_deg": 153.0097,
      "arg_perigee_deg": 87.6866,
      "mean_anomaly_deg": 272.4282,
      "mean_motion_rev_day": 15.08848553
    }
  ]
}