{"fetched_at":"2026-03-30T06:02:59Z","count":15439,"tles":[{"name":"STARLINK-3254","line1":"1 50204U 21125BA  26087.87373962  .00000637  00000+0  58073-4 0  9992","line2":"2 50204  53.2172 153.0097 0001358  87.6866 272.4282 15.08848553239688","category":"Starlink"}]}